METHANESAT              
1 59101U 24043D   25272.28429271  .00006947  00000+0  62367-3 0  9994
2 59101  97.8125  37.9522 0011323 157.3948 202.7774 14.95995146 85617
GOSAT-GW (IBUKI GW)     
1 64694U 25141A   25266.46538786  .00001696  00000+0  30721-3 0  9997
2 64694  98.0289 203.4867 0001541  81.4905 278.6474 14.67574453 12721
GHGSAT-C1               
1 46278U 20061G   25272.26676479  .00033073  00000+0  50616-3 0  9997
2 46278  97.2398 346.8698 0000488 277.3519  82.7679 15.54304917282735
GHGSAT-C12              
1 64529U 25135B   25272.28137711  .00007691  00000+0  38433-3 0  9996
2 64529  97.4551  25.2068 0005305  17.3234 342.8179 15.17724863 15212
GHGSAT-C13              
1 64548U 25135W   25272.28233281  .00006783  00000+0  33111-3 0  9995
2 64548  97.4578  25.3864 0000700  26.2653 333.8616 15.18600102 15222
GHGSAT-C2               
1 47509U 21006DA  25271.70357852  .00011016  00000+0  34069-3 0  9991
2 47509  97.2566 318.5017 0006680  42.5884 317.5876 15.33643322259711
GHGSAT-C3               
1 52737U 22057F   25272.34856297  .00012110  00000+0  42238-3 0  9998
2 52737  97.6265  44.6813 0005859 334.8276  25.2677 15.29763948185598
GHGSAT-C4               
1 52746U 22057Q   25272.30179586  .00012676  00000+0  44213-3 0  9995
2 52746  97.6194  43.7253 0005852 318.1236  41.9556 15.29751330185594
GHGSAT-C5               
1 52744U 22057N   25272.31852975  .00013297  00000+0  46364-3 0  9993
2 52744  97.6354  45.9210 0006789 329.1395  30.9445 15.29743790185591
GHGSAT-C6               
1 56204U 23054AC  25272.28784435  .00020261  00000+0  44450-3 0  9990
2 56204  97.3176 173.9011 0006105 271.0006  89.0543 15.44074949138077
GHGSAT-C7               
1 56209U 23054AH  25272.27458309  .00017406  00000+0  39647-3 0  9991
2 56209  97.3137 173.3087 0006485 263.9462  96.1047 15.42984704138067
GHGSAT-C8               
1 56186U 23054J   25272.26195282  .00021150  00000+0  46384-3 0  9999
2 56186  97.3144 173.3336 0003723 305.1660  54.9239 15.44088417138059
SENTINEL-5P             
1 42969U 17064A   25272.26331748  .00000196  00000+0  11408-3 0  9992
2 42969  98.7647 211.5546 0000915  84.5979 275.5302 14.19551383412544
ENMAP                   
1 52159U 22033C   25272.25588955  .00001146  00000+0  17777-3 0  9990
2 52159  97.9790 353.2479 0001310  97.0247 263.1111 14.75008454188192
PRISMA                  
1 44072U 19015A   25272.34332485  .00002128  00000+0  26407-3 0  9997
2 44072  97.8665 345.8569 0001181  99.2065 260.9283 14.83678530353378
SENTINEL-2A             
1 40697U 15028A   25272.30559309  .00000287  00000+0  12606-3 0  9998
2 40697  98.5700 345.8911 0001124  95.8829 264.2482 14.30819792536429
SENTINEL-2B             
1 42063U 17013A   25272.29842424  .00000284  00000+0  12487-3 0  9998
2 42063  98.5701 345.8197 0001071  88.5471 271.5835 14.30816640447331
SENTINEL-2C             
1 60989U 24157A   25272.19370754  .00000277  00000+0  12249-3 0  9991
2 60989  98.5676 345.7814 0000988  78.6923 281.4371 14.30815463 55660
LANDSAT 8               
1 39084U 13008A   25272.21857866  .00000780  00000+0  18308-3 0  9994
2 39084  98.2158 341.3568 0001201  94.8177 265.3158 14.57119416659895
LANDSAT 9               
1 49260U 21088A   25272.11561389  .00000843  00000+0  19721-3 0  9999
2 49260  98.2176 341.2728 0001294  94.8305 265.3041 14.57114415212984
